satname,norad_id,inclination_deg,eccentricity,mean_motion_rev_per_day,perigee_km,apogee_km,l1,l2
STARLINK-1337,45582,53.052,0.0001506,15.06396116,546.1805025788981,548.2664211500123,1 45582U 20025BD  25327.86229171 -.00000163  00000+0  79887-5 0  9992,2 45582  53.0520 191.6993 0001506  93.3908 266.7254 15.06396116309555
STARLINK-1347,45586,53.0518,0.0009929,15.35133871,453.73278452378236,467.3129953332018,1 45586U 20025BH  25328.56952628  .00101358  00000+0  28982-2 0  9998,2 45586  53.0518 169.4625 0009929 102.5363 257.6750 15.35133871309926
STARLINK-1360,45588,53.0409,0.0002291,15.82285193,322.44444549550917,325.5153554593089,1 45588U 20025BK  25328.91670139  .00152467  00000+0  71403-3 0  9997,2 45588  53.0409  78.4488 0002291 310.1445 184.6644 15.82285193  5882
STARLINK-1364,45589,53.0522,0.0001484,15.06399221,546.1862233818028,548.2416675424174,1 45589U 20025BL  25327.99865970 -.00001153  00000+0 -58499-4 0  9992,2 45589  53.0522 191.0860 0001484  93.8485 266.2674 15.06399221309574
STARLINK-1365,45590,53.0539,0.0001713,15.06394849,546.0410301440752,548.4136599686926,1 45590U 20025BM  25328.08067869 -.00000493  00000+0 -14193-4 0  9995,2 45590  53.0539 220.7137 0001713  93.1609 266.9576 15.06394849309183
STARLINK-1443,45660,53.0525,0.0001673,15.06401365,546.0487642991939,548.3659845268721,1 45660U 20035D   25328.72940644  .00003904  00000+0  28080-3 0  9993,2 45660  53.0525 177.8058 0001673  87.2168 272.9012 15.06401365302917
STARLINK-1446,45663,53.0256,0.0001259,15.36108607,456.76898487640483,458.4902309082727,1 45663U 20035G   25328.74499955  .00077687  00000+0  21653-2 0  9999,2 45663  53.0256 135.7355 0001259 150.6065 209.5007 15.36108607303507
STARLINK-1448,45665,53.0533,0.0001815,15.06403123,545.9450373835753,548.4589354356422,1 45665U 20035J   25328.73308446  .00001402  00000+0  11298-3 0  9991,2 45665  53.0533 177.7900 0001815  87.5906 272.5291 15.06403123302905
STARLINK-1451,45668,53.0526,0.0001523,15.06398269,546.1621318156813,548.2715946024155,1 45668U 20035M   25328.73681044  .00002103  00000+0  16007-3 0  9994,2 45668  53.0526 178.0878 0001523  91.3580 268.7583 15.06398269302911
STARLINK-1452,45669,53.0382,0.0012603,15.29011403,470.12454939202416,487.4080598616665,1 45669U 20035N   25328.69915197  .00051978  00000+0  18162-2 0  9996,2 45669  53.0382 155.5531 0012603 101.3789 258.8626 15.29011403303222
STARLINK-1453,45670,53.055,0.0001014,15.13671042,524.3161346865027,525.7160941381044,1 45670U 20035P   25328.91670139  .00091350  00000+0  49725-2 0  9994,2 45670  53.0550 146.7377 0001014 100.7078 217.6046 15.13671042  5748
STARLINK-1454,45671,53.0539,0.0001553,15.06394451,546.1530556040552,548.3040741485056,1 45671U 20035Q   25328.62619841  .00000724  00000+0  67529-4 0  9995,2 45671  53.0539 178.2726 0001553  94.6317 265.4850 15.06394451302886
STARLINK-1456,45673,53.0522,0.0001458,15.06400074,546.2016153522645,548.2210469256252,1 45673U 20035S   25328.57458229 -.00000065  00000+0  14526-4 0  9990,2 45673  53.0522 178.5009 0001458  83.5796 276.5359 15.06400074302896
STARLINK-1457,45674,53.0519,0.0001198,15.43616256,434.63069965304567,436.26323437154133,1 45674U 20035T   25328.79865191  .00103070  00000+0  22342-2 0  9997,2 45674  53.0519 173.4616 0001198 121.3019 238.8103 15.43616256302958
STARLINK-1458,45675,53.0527,0.0001648,15.0640478,546.0556129374281,548.3382029934937,1 45675U 20035U   25327.97377974 -.00000684  00000+0 -26999-4 0  9997,2 45675  53.0527 181.1959 0001648  86.2757 273.8421 15.06404780302769
STARLINK-1460,45676,53.0522,0.0001529,15.06397591,546.1600542627502,548.2778281095643,1 45676U 20035V   25328.60776836  .00002860  00000+0  21080-3 0  9990,2 45676  53.0522 178.3488 0001529  88.7064 271.4100 15.06397591302855
STARLINK-1392,45677,53.0535,0.0001713,15.06394248,546.042871818092,548.415502273775,1 45677U 20035W   25328.61883793  .00006880  00000+0  48040-3 0  9994,2 45677  53.0535 178.3010 0001713  96.8284 263.2900 15.06394248302897
STARLINK-1394,45679,53.0535,0.000142,15.06395729,546.2412466150572,548.2080493230806,1 45679U 20035Y   25328.54971313  .00001290  00000+0  10552-3 0  9991,2 45679  53.0535 168.6099 0001420  94.9740 265.1411 15.06395729303028
STARLINK-1402,45685,53.0522,0.0004474,15.29279458,474.8976005073682,481.0324405953579,1 45685U 20035AE  25328.80345032  .00056398  00000+0  19560-2 0  9996,2 45685  53.0522 156.5451 0004474 160.1492 199.9682 15.29279458303222
STARLINK-1404,45686,53.0539,0.0001567,15.06400394,546.1251484554823,548.2955523150931,1 45686U 20035AF  25328.70820647  .00001280  00000+0  10482-3 0  9991,2 45686  53.0539 167.9007 0001567  91.7594 268.3574 15.06400394303058
STARLINK-1413,45689,53.0535,0.0001568,15.06400521,546.1240667452676,548.2958555522846,1 45689U 20035AJ  25328.72663314  .00002616  00000+0  19445-3 0  9994,2 45689  53.0535 167.8107 0001568 100.3532 259.7634 15.06400521302969
STARLINK-1417,45693,53.0528,0.0001627,15.06700107,545.1653212939418,547.4185304664225,1 45693U 20035AN  25328.72221056  .00019495  00000+0  13134-2 0  9993,2 45693  53.0528 167.8298 0001627 104.2770 255.8400 15.06700107303041
STARLINK-1420,45695,53.0546,0.0001578,15.06396934,546.1281333173629,548.3137762878978,1 45695U 20035AQ  25328.79019424  .00001260  00000+0  10351-3 0  9996,2 45695  53.0546 147.5213 0001578  95.2767 264.8402 15.06396934303349
STARLINK-1422,45696,53.0534,0.0001702,15.06395879,546.0454917642992,548.4028847127756,1 45696U 20035AR  25328.73400720  .00002027  00000+0  15494-3 0  9999,2 45696  53.0534 167.7908 0001702 108.5201 251.5973 15.06395879303042
STARLINK-1351,45697,53.0531,0.000139,15.0639686,546.2585568155073,548.1838063899922,1 45697U 20035AS  25328.77639360  .00000612  00000+0  59976-4 0  9990,2 45697  53.0531 147.5938 0001390  91.2401 268.8747 15.06396860303346
STARLINK-1398,45699,53.0481,0.000313,15.55676917,398.0640137505852,402.3072437161718,1 45699U 20035AU  25328.63491241  .00055862  00000+0  79952-3 0  9993,2 45699  53.0481  99.7624 0003130 190.2001 169.8947 15.55676917304006
STARLINK-1400,45700,53.053,0.0001566,15.06394587,546.1436358711562,548.312660235526,1 45700U 20035AV  25328.68424503  .00001427  00000+0  11472-3 0  9999,2 45700  53.0530 148.0062 0001566  99.7515 260.3651 15.06394587303321
STARLINK-1403,45701,53.0525,0.0001584,15.06405111,546.0989207733546,548.2928662340155,1 45701U 20035AW  25328.78008458  .00001012  00000+0  86834-4 0  9993,2 45701  53.0525 147.5771 0001584  91.4337 268.6833 15.06405111303338
STARLINK-1407,45703,53.0407,0.0010734,15.44166885,426.51515393578757,441.1390785004842,1 45703U 20035AY  25328.64902352  .00026553  00000+0  57627-3 0  9990,2 45703  53.0407 100.5150 0010734 135.2245 224.9628 15.44166885303994
STARLINK-1411,45706,53.0508,7.16e-05,15.44052469,433.675867400013,434.6513888499612,1 45706U 20035BB  25328.72855887  .00050834  00000+0  10977-2 0  9997,2 45706  53.0508 127.3680 0000716 232.4930 127.6010 15.44052469303619
STARLINK-1423,45710,53.0534,0.000146,15.06396055,546.2125461667529,548.2347514762077,1 45710U 20035BF  25328.67318897  .00000783  00000+0  71486-4 0  9993,2 45710  53.0534 148.0562 0001460  97.3338 262.7817 15.06396055303323
STARLINK-1433,45711,53.054,0.0001497,15.06397206,546.183395198067,548.2568471201412,1 45711U 20035BG  25328.78745373  .00001512  00000+0  12036-3 0  9995,2 45711  53.0540 147.5419 0001497  92.1627 267.9534 15.06397206303333
STARLINK-1434,45712,53.0487,0.0006896,15.17027257,510.07744545662354,519.5842266961399,1 45712U 20035BH  25328.79089108  .00036897  00000+0  18487-2 0  9993,2 45712  53.0487 142.0098 0006896 138.4507 221.7012 15.17027257303423
STARLINK-1465,45731,53.0564,0.0001489,15.06390281,546.210156598002,548.272534269272,1 45731U 20038B   25328.75427822 -.00001769  00000+0 -99903-4 0  9998,2 45731  53.0564 347.6914 0001489  99.4436 260.6721 15.06390281300378
STARLINK-1471,45735,53.0522,0.0001631,15.42185268,438.5491987941705,440.7731645610338,1 45735U 20038F   25328.60683094  .00022781  00000+0  53091-3 0  9993,2 45735  53.0522 282.6480 0001631  74.1786 285.9398 15.42185268301287
STARLINK-1474,45738,53.0351,0.0004186,15.71672621,351.2982043539041,356.9344468380932,1 45738U 20038J   25328.47470183  .00099912  00000+0  75482-3 0  9992,2 45738  53.0351 235.7613 0004186  83.9058 276.2436 15.71672621301928
STARLINK-1475,45739,53.0407,0.0004062,15.93798774,288.9543051841674,294.37285117388,1 45739U 20038K   25328.91670139  .00389976  70537-4  10524-2 0  9999,2 45739  53.0407 197.2938 0004062 138.5667 138.6584 15.93798774  5949
STARLINK-1480,45741,53.0555,0.0001637,15.06410554,546.0455373733384,548.3128859010294,1 45741U 20038M   25328.47044997 -.00000441  00000+0 -10721-4 0  9993,2 45741  53.0555 348.9635 0001637 103.9228 256.1943 15.06410554300347
STARLINK-1500,45744,53.0393,0.0001722,15.28861793,478.03279272381496,480.39446428026986,1 45744U 20038Q   25328.43467859  .00020752  00000+0  74050-3 0  9997,2 45744  53.0393 324.2205 0001722 346.8252  13.2701 15.28861793300680
STARLINK-1504,45746,53.028,0.0002689,15.42733686,436.2124665280953,439.8782093894497,1 45746U 20038S   25328.30121005  .00049411  00000+0  11158-2 0  9997,2 45746  53.0280 287.1670 0002689  31.4278 328.6887 15.42733686301187
STARLINK-1506,45747,53.066,0.0002496,15.22202432,497.4822723667812,500.9154384257954,1 45747U 20038T   25328.42658280  .00009028  00000+0  40175-3 0  9993,2 45747  53.0660 327.9062 0002496 343.7483  16.3432 15.22202432300635
STARLINK-1464,45751,53.0552,0.0001331,15.06407398,546.2671233513875,548.1106451017686,1 45751U 20038X   25328.27327697  .00005681  00000+0  39986-3 0  9995,2 45751  53.0552 329.8519 0001331  92.6468 267.4674 15.06407398300590
STARLINK-1477,45754,53.0539,0.0004293,15.08004539,539.3272950713235,545.2691807665997,1 45754U 20038AA  25328.27227598  .00029405  00000+0  19003-2 0  9994,2 45754  53.0539 329.6887 0004293  45.1361 314.9976 15.08004539300594
